start=new Date('2021-11-30T00:00:00.000Z').valueOf();
sats=[{"NORAD_CAT_ID":"46162","REV_AT_EPOCH":"7234","SEMIMAJOR_AXIS":"6925.269","GP_ID":"190748309","ELEMENT_SET_NO":"999","PERIOD":"95.590","TLE_LINE2":"2 46162  53.0541 103.7567 0001565  85.4722 274.6445 15.06426089 72342","DECAY_DATE":null,"ARG_OF_PERICENTER":"85.4722","EPOCH":"2021-11-29T18:59:58.629120","SITE":"AFETR","COUNTRY_CODE":"US","RA_OF_ASC_NODE":"103.7567","MEAN_MOTION_DDOT":"0.0000000000000","OBJECT_ID":"2020-057AX","TIME_SYSTEM":"UTC","CENTER_NAME":"EARTH","REF_FRAME":"TEME","OBJECT_TYPE":"PAYLOAD","TLE_LINE1":"1 46162U 20057AX  21333.79165080 -.00003421  00000-0 -21073-3 0  9999","APOAPSIS":"548.217","FILE":"3227094","PERIAPSIS":"546.050","MEAN_ELEMENT_THEORY":"SGP4","MEAN_ANOMALY":"274.6445","RCS_SIZE":"LARGE","EPHEMERIS_TYPE":"0","INCLINATION":"53.0541","MEAN_MOTION":"15.06426089","ECCENTRICITY":"0.00015650","LAUNCH_DATE":"2020-08-18","BSTAR":"-0.00021073000000","MEAN_MOTION_DOT":"-0.00003421","CLASSIFICATION_TYPE":"U","OBJECT_NAME":"STARLINK-1603"},{"RCS_SIZE":"LARGE","EPHEMERIS_TYPE":"0","INCLINATION":"53.0560","MEAN_ANOMALY":"283.8677","MEAN_ELEMENT_THEORY":"SGP4","PERIAPSIS":"546.287","MEAN_MOTION":"15.06399656","OBJECT_NAME":"STARLINK-1610","MEAN_MOTION_DOT":"0.00000272","CLASSIFICATION_TYPE":"U","ECCENTRICITY":"0.00013400","LAUNCH_DATE":"2020-08-18","BSTAR":"0.00003713000000","TIME_SYSTEM":"UTC","OBJECT_ID":"2020-057AY","OBJECT_TYPE":"PAYLOAD","REF_FRAME":"TEME","CENTER_NAME":"EARTH","FILE":"3227094","TLE_LINE1":"1 46163U 20057AY  21333.72347447  .00000272  00000-0  37130-4 0  9993","APOAPSIS":"548.143","EPOCH":"2021-11-29T17:21:48.194208","ARG_OF_PERICENTER":"76.2461","COUNTRY_CODE":"US","RA_OF_ASC_NODE":"84.0786","SITE":"AFETR","MEAN_MOTION_DDOT":"0.0000000000000","SEMIMAJOR_AXIS":"6925.350","REV_AT_EPOCH":"7135","NORAD_CAT_ID":"46163","PERIOD":"95.592","ELEMENT_SET_NO":"999","GP_ID":"190749037","DECAY_DATE":null,"TLE_LINE2":"2 46163  53.0560  84.0786 0001340  76.2461 283.8677 15.06399656 71355"},{"PERIOD":"95.590","GP_ID":"190747807","ELEMENT_SET_NO":"999","REV_AT_EPOCH":"7261","NORAD_CAT_ID":"46164","SEMIMAJOR_AXIS":"6925.252","TLE_LINE2":"2 46164  53.0503  84.0940 0001824  55.3565 304.7596 15.06431636 72613","DECAY_DATE":null,"ARG_OF_PERICENTER":"55.3565","EPOCH":"2021-11-29T17:16:28.973856","MEAN_MOTION_DDOT":"0.0000000000000","SITE":"AFETR","RA_OF_ASC_NODE":"84.0940","COUNTRY_CODE":"US","CENTER_NAME":"EARTH","OBJECT_TYPE":"PAYLOAD","REF_FRAME":"TEME","TIME_SYSTEM":"UTC","OBJECT_ID":"2020-057AZ","APOAPSIS":"548.380","TLE_LINE1":"1 46164U 20057AZ  21333.71977979 -.00006791  00000-0 -43702-3 0  9997","FILE":"3227094","MEAN_MOTION":"15.06431636","PERIAPSIS":"545.853","INCLINATION":"53.0503","RCS_SIZE":"LARGE","EPHEMERIS_TYPE":"0","MEAN_ANOMALY":"304.7596","MEAN_ELEMENT_THEORY":"SGP4","CLASSIFICATION_TYPE":"U","MEAN_MOTION_DOT":"-0.00006791","LAUNCH_DATE":"2020-08-18","BSTAR":"-0.00043702000000","ECCENTRICITY":"0.00018240","OBJECT_NAME":"STARLINK-1612"},{"COUNTRY_CODE":"US","RA_OF_ASC_NODE":"123.4406","SITE":"AFETR","MEAN_MOTION_DDOT":"0.0000000000000","EPOCH":"2021-11-29T20:43:30.250848","ARG_OF_PERICENTER":"87.9023","DECAY_DATE":null,"TLE_LINE2":"2 46165  53.0526 123.4406 0001717  87.9023 272.2163 15.06409880 70810","SEMIMAJOR_AXIS":"6925.318","REV_AT_EPOCH":"7081","NORAD_CAT_ID":"46165","PERIOD":"95.592","ELEMENT_SET_NO":"999","GP_ID":"190748558","OBJECT_NAME":"STARLINK-1613","MEAN_MOTION_DOT":"0.00001339","CLASSIFICATION_TYPE":"U","LAUNCH_DATE":"2020-08-18","BSTAR":"0.00010874000000","ECCENTRICITY":"0.00017170","RCS_SIZE":"LARGE","EPHEMERIS_TYPE":"0","INCLINATION":"53.0526","MEAN_ANOMALY":"272.2163","MEAN_ELEMENT_THEORY":"SGP4","PERIAPSIS":"545.994","MEAN_MOTION":"15.06409880","FILE":"3227094","TLE_LINE1":"1 46165U 20057BA  21333.86354457  .00001339  00000-0  10874-3 0  9999","APOAPSIS":"548.372","OBJECT_ID":"2020-057BA","TIME_SYSTEM":"UTC","OBJECT_TYPE":"PAYLOAD","REF_FRAME":"TEME","CENTER_NAME":"EARTH"},{"OBJECT_NAME":"STARLINK-1615","LAUNCH_DATE":"2020-08-18","BSTAR":"-0.00003262600000","ECCENTRICITY":"0.00019760","CLASSIFICATION_TYPE":"U","MEAN_MOTION_DOT":"-0.00000768","MEAN_ANOMALY":"268.7484","MEAN_ELEMENT_THEORY":"SGP4","RCS_SIZE":"LARGE","INCLINATION":"53.0541","EPHEMERIS_TYPE":"0","PERIAPSIS":"545.856","MEAN_MOTION":"15.06396354","FILE":"3227094","TLE_LINE1":"1 46166U 20057BB  21333.83774146 -.00000768  00000-0 -32626-4 0  9995","APOAPSIS":"548.593","TIME_SYSTEM":"UTC","OBJECT_ID":"2020-057BB","REF_FRAME":"TEME","OBJECT_TYPE":"PAYLOAD","CENTER_NAME":"EARTH","RA_OF_ASC_NODE":"123.5494","COUNTRY_CODE":"US","SITE":"AFETR","MEAN_MOTION_DDOT":"0.0000000000000","EPOCH":"2021-11-29T20:06:20.862144","ARG_OF_PERICENTER":"91.3731","DECAY_DATE":null,"TLE_LINE2":"2 46166  53.0541 123.5494 0001976  91.3731 268.7484 15.06396354 70815","SEMIMAJOR_AXIS":"6925.360","NORAD_CAT_ID":"46166","REV_AT_EPOCH":"7081","ELEMENT_SET_NO":"999","GP_ID":"190748809","PERIOD":"95.592"},{"MEAN_ELEMENT_THEORY":"SGP4","MEAN_ANOMALY":"266.8061","RCS_SIZE":"LARGE","EPHEMERIS_TYPE":"0","INCLINATION":"53.0544","PERIAPSIS":"546.253","MEAN_MOTION":"15.06401000","OBJECT_NAME":"STARLINK-1626","BSTAR":"0.00011292000000","LAUNCH_DATE":"2020-08-18","ECCENTRICITY":"0.00013830","MEAN_MOTION_DOT":"0.00001401","CLASSIFICATION_TYPE":"U","OBJECT_ID":"2020-057BC","TIME_SYSTEM":"UTC","REF_FRAME":"TEME","OBJECT_TYPE":"PAYLOAD","CENTER_NAME":"EARTH","FILE":"3227094","TLE_LINE1":"1 46167U 20057BC  21333.71981318  .00001401  00000-0  11292-3 0  9992","APOAPSIS":"548.168","EPOCH":"2021-11-29T17:16:31.858752","ARG_OF_PERICENTER":"93.3086","COUNTRY_CODE":"US","RA_OF_ASC_NODE":"124.0916","SITE":"AFETR","MEAN_MOTION_DDOT":"0.0000000000000","SEMIMAJOR_AXIS":"6925.345","NORAD_CAT_ID":"46167","REV_AT_EPOCH":"7079","ELEMENT_SET_NO":"999","GP_ID":"190749039","PERIOD":"95.592","DECAY_DATE":null,"TLE_LINE2":"2 46167  53.0544 124.0916 0001383  93.3086 266.8061 15.06401000 70793"},{"REV_AT_EPOCH":"7146","NORAD_CAT_ID":"46168","SEMIMAJOR_AXIS":"6925.327","PERIOD":"95.592","GP_ID":"190720715","ELEMENT_SET_NO":"999","TLE_LINE2":"2 46168  53.0545  74.8102 0001151  87.1469 272.9652 15.06407100 71469","DECAY_DATE":null,"ARG_OF_PERICENTER":"87.1469","EPOCH":"2021-11-29T13:22:54.786720","SITE":"AFETR","COUNTRY_CODE":"US","RA_OF_ASC_NODE":"74.8102","MEAN_MOTION_DDOT":"0.0000000000000","TIME_SYSTEM":"UTC","OBJECT_ID":"2020-057BD","CENTER_NAME":"EARTH","OBJECT_TYPE":"PAYLOAD","REF_FRAME":"TEME","APOAPSIS":"547.989","TLE_LINE1":"1 46168U 20057BD  21333.55757855  .00000452  00000-0  49194-4 0  9990","FILE":"3226898","PERIAPSIS":"546.395","INCLINATION":"53.0545","RCS_SIZE":"LARGE","EPHEMERIS_TYPE":"0","MEAN_ANOMALY":"272.9652","MEAN_ELEMENT_THEORY":"SGP4","MEAN_MOTION":"15.06407100","CLASSIFICATION_TYPE":"U","MEAN_MOTION_DOT":"0.00000452","LAUNCH_DATE":"2020-08-18","BSTAR":"0.00004919400000","ECCENTRICITY":"0.00011510","OBJECT_NAME":"STARLINK-1627"},{"SEMIMAJOR_AXIS":"6927.812","NORAD_CAT_ID":"46169","REV_AT_EPOCH":"7078","GP_ID":"190748059","ELEMENT_SET_NO":"999","PERIOD":"95.643","DECAY_DATE":null,"TLE_LINE2":"2 46169  52.9987 123.5847 0001862  92.1255 267.9946 15.05596742 70788","EPOCH":"2021-11-29T19:53:55.815072","ARG_OF_PERICENTER":"92.1255","RA_OF_ASC_NODE":"123.5847","COUNTRY_CODE":"US","SITE":"AFETR","MEAN_MOTION_DDOT":"0.0000000000000","TIME_SYSTEM":"UTC","OBJECT_ID":"2020-057BE","REF_FRAME":"TEME","OBJECT_TYPE":"PAYLOAD","CENTER_NAME":"EARTH","FILE":"3227094","APOAPSIS":"550.966","TLE_LINE1":"1 46169U 20057BE  21333.82911823  .00001605  00000-0  12924-3 0  9999","MEAN_ANOMALY":"267.9946","MEAN_ELEMENT_THEORY":"SGP4","INCLINATION":"52.9987","RCS_SIZE":"LARGE","EPHEMERIS_TYPE":"0","PERIAPSIS":"548.387","MEAN_MOTION":"15.05596742","OBJECT_NAME":"STARLINK-1628","LAUNCH_DATE":"2020-08-18","ECCENTRICITY":"0.00018620","BSTAR":"0.00012924000000","CLASSIFICATION_TYPE":"U","MEAN_MOTION_DOT":"0.00001605"},{"SITE":"AFETR","RA_OF_ASC_NODE":"105.0837","COUNTRY_CODE":"US","MEAN_MOTION_DDOT":"0.0000000000000","ARG_OF_PERICENTER":"87.9410","EPOCH":"2021-11-29T11:55:22.534176","TLE_LINE2":"2 46171  53.0538 105.0837 0001585  87.9410 272.1761 15.06402842 72295","DECAY_DATE":null,"REV_AT_EPOCH":"7229","NORAD_CAT_ID":"46171","SEMIMAJOR_AXIS":"6925.340","PERIOD":"95.592","GP_ID":"190720968","ELEMENT_SET_NO":"999","MEAN_MOTION_DOT":"0.00001991","CLASSIFICATION_TYPE":"U","BSTAR":"0.00015248000000","LAUNCH_DATE":"2020-08-18","ECCENTRICITY":"0.00015850","OBJECT_NAME":"STARLINK-1633","PERIAPSIS":"546.107","EPHEMERIS_TYPE":"0","RCS_SIZE":"LARGE","INCLINATION":"53.0538","MEAN_ANOMALY":"272.1761","MEAN_ELEMENT_THEORY":"SGP4","MEAN_MOTION":"15.06402842","APOAPSIS":"548.303","TLE_LINE1":"1 46171U 20057BG  21333.49678859  .00001991  00000-0  15248-3 0  9994","FILE":"3226898","OBJECT_ID":"2020-057BG","TIME_SYSTEM":"UTC","CENTER_NAME":"EARTH","OBJECT_TYPE":"PAYLOAD","REF_FRAME":"TEME"},{"DECAY_DATE":null,"TLE_LINE2":"2 46172  53.0543 104.1344 0001493  77.0467 283.0688 15.06409933 72326","SEMIMAJOR_AXIS":"6925.318","REV_AT_EPOCH":"7232","NORAD_CAT_ID":"46172","PERIOD":"95.592","ELEMENT_SET_NO":"999","GP_ID":"190749038","COUNTRY_CODE":"US","RA_OF_ASC_NODE":"104.1344","SITE":"AFETR","MEAN_MOTION_DDOT":"0.0000000000000","EPOCH":"2021-11-29T17:03:13.899456","ARG_OF_PERICENTER":"77.0467","FILE":"3227094","APOAPSIS":"548.217","TLE_LINE1":"1 46172U 20057BH  21333.71057754 -.00000380  00000-0 -66032-5 0  9997","TIME_SYSTEM":"UTC","OBJECT_ID":"2020-057BH","OBJECT_TYPE":"PAYLOAD","REF_FRAME":"TEME","CENTER_NAME":"EARTH","OBJECT_NAME":"STARLINK-1635","MEAN_MOTION_DOT":"-0.00000380","CLASSIFICATION_TYPE":"U","BSTAR":"-0.00000660320000","LAUNCH_DATE":"2020-08-18","ECCENTRICITY":"0.00014930","INCLINATION":"53.0543","RCS_SIZE":"LARGE","EPHEMERIS_TYPE":"0","MEAN_ELEMENT_THEORY":"SGP4","MEAN_ANOMALY":"283.0688","PERIAPSIS":"546.149","MEAN_MOTION":"15.06409933"}];
